#aV2020  6 13  0  0  0.00000000     288 DD+AD WGS84 FIT  NGA
## 2109 518400.00000000   300.00000000 59013 0.0000000000000
+   32     1  2  3  4  5  6  7  8  9 10 11 12 13 14 15 16 17
+         18 19 20 21 22 23 24 25 26 27 28 29 30 31 32  0  0
+          0  0  0  0  0  0  0  0  0  0  0  0  0  0  0  0  0
+          0  0  0  0  0  0  0  0  0  0  0  0  0  0  0  0  0
+          0  0  0  0  0  0  0  0  0  0  0  0  0  0  0  0  0
++         2  2  2  2  2  2  2  2  2  2  2  2  2  2  2  2  2
++         2  2  2  2  2  2  2  2  2  2  2  2  2  2  2  0  0
++         0  0  0  0  0  0  0  0  0  0  0  0  0  0  0  0  0
++         0  0  0  0  0  0  0  0  0  0  0  0  0  0  0  0  0
++         0  0  0  0  0  0  0  0  0  0  0  0  0  0  0  0  0
%c cc cc ccc ccc cccc cccc cccc cccc ccccc ccccc ccccc ccccc
%c cc cc ccc ccc cccc cccc cccc cccc ccccc ccccc ccccc ccccc
%f  0.0000000  0.000000000  0.00000000000  0.000000000000000
%f  0.0000000  0.000000000  0.00000000000  0.000000000000000
%i    0    0    0    0      0      0      0      0         0
%i    0    0    0    0      0      0      0      0         0
/*      NGA, ST. LOUIS,MO.                                  
/*   EPHEMERIS COMPUTED FROM 2 DAYS OF DATA                 
/*   EPOCHA v5 SMOOTHER                                     
/*   G1762 IERS2010 SATAF SATAPC                            
*  2020  6 13  8  5  0.00000000
P  1 -21966.748092 -15259.093241   -425.934885      7.283143                    
V  1   1283.008900  -1425.419842 -31957.360622      0.103348                    
P  2   6337.462613  18595.028829  18538.312471   -471.371323                    
V  2 -19974.676118  -9865.052933  17278.921513     -0.059645                    
P  3 -12447.162460 -13395.551311  19237.052266   -207.317399                    
V  3   2821.530490 -24379.200832 -14998.880839     -0.122474                    
P  4 -20337.468520  -3638.165821  16722.162501   -101.851742                    
V  4  18559.388641 -10405.381837  20291.150654     -0.048252                    
P  5   2256.488937  26010.466504  -4399.251093    -14.553975                    
V  5  -3344.281562   5343.345763  31043.814863     -0.007484                    
P  6  -5991.802900  13721.061701  21985.079657   -287.890817                    
V  6 -23206.990913 -15196.317019   3209.687822     -0.060146                    
P  7 -21896.942265  -2153.184166 -14908.499148   -303.366446                    
V  7 -14811.705116 -12538.759091  22601.626264     -0.087952                    
P  8 -10598.874147 -11238.344204 -21621.804343    -37.378245                    
V  8  24267.301417 -12773.332914  -5002.873945     -0.013283                    
P  9 -24588.054783   6510.921991   7632.159549   -235.412201                    
V  9   7367.813482  -7024.719017  29525.403234     -0.069021                    
P 10  11640.628386 -18239.316333 -15152.580215   -369.899556                    
V 10    868.757697  19576.664557 -22995.285643     -0.111515                    
P 11 -18638.841427 -13083.423080 -13899.751855   -250.110613                    
V 11  17389.605889  -1254.268929 -23275.620738      0.106710                    
P 12  11069.890275  14425.258815  19179.922753    106.643295                    
V 12  -4403.826565  24390.656945 -15461.058224     -0.044616                    
P 13   1491.498088  15329.735743 -21746.605448     17.924783                    
V 13 -25966.379004   8512.128332   4335.763695      0.031728                    
P 14  13166.521585 -17076.892942  15733.605530     -6.226399                    
V 14  18788.985887  -5312.816799 -22166.613343      0.027019                    
P 15  12750.399057  10634.420926 -21097.649170   -224.591408                    
V 15 -21823.639971  14407.460068  -5637.244538      0.025901                    
P 16   -841.263173 -25416.455792  -7032.764970   -169.878332                    
V 16   3773.579161  -8251.393062  30734.566110     -0.046449                    
P 17 -20386.461273  14873.793571   8628.295127    280.036497                    
V 17 -10268.194781   2317.167855 -29752.289953      0.058378                    
P 18  21559.433775   2115.412028 -15395.326686    218.741419                    
V 18  14858.060783  12790.317000  22555.248499      0.107672                    
P 19 -15225.783984  15958.079151  14473.481427   -145.844060                    
V 19 -18298.050896   4947.143990 -24231.104802      0.050794                    
P 20  14984.876765  -6873.528512 -20866.695086    527.522279                    
V 20   2718.435374  26336.103362  -6971.274358     -0.000802                    
P 21  15916.838331  -6703.284075 -19367.305893     10.979350                    
V 21  22053.338601  14461.680991  12914.102376      0.047592                    
P 22 -10601.124933 -20387.561106  13655.321672   -778.202937                    
V 22   2369.800233 -17066.310963 -23869.980542      0.019132                    
P 23 -24057.936195  11769.317801   1024.028519   -106.182545                    
V 23   -659.930002  -3053.877477  31063.656586      0.032262                    
P 24  22020.285406  15021.035552  -2570.344194    -14.249187                    
V 24  -4222.926559   1277.917995 -30747.956354     -0.004248                    
P 25  14747.127203   3445.291542  21598.416271     12.614681                    
V 25  -1989.794554  27888.590075  -2803.440696      0.036374                    
P 26   5172.901704 -25192.379595   6112.012967    224.488976                    
V 26   3085.877925   7968.217446  30280.186839      0.069987                    
P 27   1060.838547 -16313.576308 -21002.224665   -319.290973                    
V 27  24007.804124 -10938.825892  10103.120303     -0.099119                    
P 28 -12129.426328  19220.864567 -13281.365956    709.067504                    
V 28    922.026269 -17827.554079 -25393.159358     -0.033590                    
P 29  24059.548390  -1932.593948  11068.952475   -126.770369                    
V 29 -12362.372898   6963.283955  27943.258294     -0.087155                    
P 30 -14914.688382   7814.816251 -20539.425829   -240.667172                    
V 30 -20775.513141 -16016.788109   8756.707184     -0.079977                    
P 31   5200.484613 -14742.786349  21376.950581    -48.811873                    
V 31  22699.846820  15212.206238   5405.375459     -0.024958                    
P 32  19024.876162 -16343.796883   8596.323362    299.090732                    
V 32  10958.124843  -2352.226632 -29156.371220      0.069451                    
EOF
